GLOBALSTAR M023 [+]     
1 25621U 99004A   23257.29647375 -.00000172  00000+0 -37657-3 0  9992
2 25621  52.0100 207.8937 0009824 145.3327   5.3364 12.62447930134658
GLOBALSTAR M040 [-]     
1 25622U 99004B   23257.34291637 -.00000095  00000+0  50921-4 0  9998
2 25622  51.9902 210.9707 0000971  59.7915 100.1297 12.61953810134211
GLOBALSTAR M036 [-]     
1 25623U 99004C   23257.39488337 -.00000106  00000+0 -33613-3 0  9991
2 25623  51.9954 131.8680 0010274 265.9750 143.3739 11.86553669102797
GLOBALSTAR M038 [-]     
1 25624U 99004D   23257.06933043 -.00000053  00000+0  34543-3 0  9998
2 25624  51.9965 120.7234 0001938 131.0591  23.8233 12.32483934123192
GLOBALSTAR M022 [-]     
1 25649U 99012A   23257.11786581 -.00000085  00000+0  26244-4 0  9998
2 25649  52.0020 236.2919 0002800 346.5014  92.4444 12.02468905 99138
GLOBALSTAR M041 [-]     
1 25650U 99012B   23257.30495145 -.00000103  00000+0 -23240-3 0  9998
2 25650  52.0013  97.6646 0002552 113.8762 246.2342 11.96645603101434
GLOBALSTAR M046 [-]     
1 25651U 99012C   23257.35889542 -.00000058  00000+0  34307-3 0  9996
2 25651  52.0040 209.1954 0002569  48.6832 120.5541 12.09375232106004
GLOBALSTAR M037 [+]     
1 25652U 99012D   23257.55438181 -.00000104  00000+0 -16745-5 0  9999
2 25652  52.0033 337.9750 0001842 189.9795 276.4491 12.62382743130232
